IRIDIUM 119             
1 42959U 17061E   25290.12294897  .00000117  00000+0  34834-4 0  9998
2 42959  86.3944 126.8877 0002399  87.3841 272.7629 14.34218320419971
IRIDIUM 107             
1 42960U 17061F   25290.07220750  .00000135  00000+0  41262-4 0  9994
2 42960  86.3944 126.9287 0002367  77.5856 282.5604 14.34218512419976
IRIDIUM 132             
1 42961U 17061G   25290.07854987  .00000135  00000+0  41028-4 0  9990
2 42961  86.3944 126.9072 0002124  84.2671 275.8767 14.34218367419973
IRIDIUM 136             
1 42962U 17061H   25290.11026308  .00000073  00000+0  18988-4 0  9994
2 42962  86.3944 126.8994 0002258  85.5866 274.5588 14.34218075419999
IRIDIUM 139             
1 42963U 17061J   25290.11660505 -.00000093  00000+0 -40355-4 0  9995
2 42963  86.3949 126.9545 0002018  79.7992 280.3431 14.34217450420009
IRIDIUM 125             
1 42964U 17061K   25290.10392199  .00000139  00000+0  42740-4 0  9995
2 42964  86.3947 127.0167 0002617  81.3753 278.7739 14.34217758420013
IRIDIUM 135             
1 43070U 17083A   25289.65943512  .00000031  00000+0  40570-5 0  9998
2 43070  86.3950  63.8018 0001984  95.2456 264.8966 14.34217537409243
IRIDIUM 138             
1 43071U 17083B   25290.10341139  .00000180  00000+0  57114-4 0  9994
2 43071  86.3963  63.2737 0002438  96.4236 263.7237 14.34215310409295
